[{"OBJECT_NAME":"STARLINK-31427","OBJECT_ID":"2024-049L","EPOCH":"2026-03-09T05:48:09.256320","MEAN_MOTION":15.2757412,"ECCENTRICITY":8.29e-5,"INCLINATION":42.9998,"RA_OF_ASC_NODE":146.3751,"ARG_OF_PERICENTER":255.3591,"MEAN_ANOMALY":104.7169,"EPHEMERIS_TYPE":0,"CLASSIFICATION_TYPE":"U","NORAD_CAT_ID":59241,"ELEMENT_SET_NO":999,"REV_AT_EPOCH":11233,"BSTAR":-7.0464e-5,"MEAN_MOTION_DOT":-2.2e-5,"MEAN_MOTION_DDOT":0},{"OBJECT_NAME":"TEVEL2-8","OBJECT_ID":"2025-052AF","EPOCH":"2026-03-09T16:02:08.542752","MEAN_MOTION":15.28392908,"ECCENTRICITY":0.0008031,"INCLINATION":97.4055,"RA_OF_ASC_NODE":324.2923,"ARG_OF_PERICENTER":124.9191,"MEAN_ANOMALY":235.2804,"EPHEMERIS_TYPE":0,"CLASSIFICATION_TYPE":"U","NORAD_CAT_ID":63239,"ELEMENT_SET_NO":999,"REV_AT_EPOCH":5480,"BSTAR":0.00069303947,"MEAN_MOTION_DOT":0.0001913,"MEAN_MOTION_DDOT":0}]
